OBJECT_NAME,OBJECT_ID,EPOCH,MEAN_MOTION,ECCENTRICITY,INCLINATION,RA_OF_ASC_NODE,ARG_OF_PERICENTER,MEAN_ANOMALY,EPHEMERIS_TYPE,CLASSIFICATION_TYPE,NORAD_CAT_ID,ELEMENT_SET_NO,REV_AT_EPOCH,BSTAR,MEAN_MOTION_DOT,MEAN_MOTION_DDOT
STARLINK-37353,2026-111K,2026-06-13T17:25:04.415520,15.80817314,.0003789,53.1569,168.9578,348.1205,11.9728,0,U,69157,999,371,.18247002E-2,.374586E-2,0
STARLINK-37363,2026-111L,2026-06-13T22:00:01.999584,15.77062715,.00006942,53.1585,167.9825,98.1349,276.7344,0,U,69158,999,502,-.17690842E-1,-.2509623E-1,0
STARLINK-37343,2026-111M,2026-06-13T22:00:01.999584,15.49262996,.00008288,53.1593,168.9569,69.9943,184.4251,0,U,69159,999,502,.1558994E-2,.87087E-3,0
STARLINK-37328,2026-111N,2026-06-13T17:21:52.143552,15.80975520,.00028828,53.1569,168.9418,21.7732,338.3413,0,U,69160,999,371,.21155205E-2,.440945E-2,0
STARLINK-37311,2026-111P,2026-06-13T17:38:38.292288,15.78189461,.00021626,53.1570,169.0196,72.3858,287.7399,0,U,69161,999,371,.2123048E-2,.387488E-2,0
STARLINK-36286,2026-111Q,2026-06-12T15:47:02.628384,15.77702201,.00008158,53.1571,174.3873,172.6788,187.4246,0,U,69162,999,354,-.23896801E-2,-.390918E-2,0
STARLINK-37196,2026-111R,2026-06-13T17:41:19.353120,15.78135609,.00019362,53.1572,169.0314,80.2172,279.9068,0,U,69163,999,371,.1664933E-2,.299868E-2,0
STARLINK-36288,2026-111S,2026-06-13T22:00:01.999584,15.71086024,.00011033,53.1589,168.1541,111.9979,178.5168,0,U,69164,999,502,-.21453204E-1,-.2419773E-1,0
STARLINK-37445,2026-111T,2026-06-13T22:21:51.102144,15.68088455,.00020548,53.1588,168.1126,355.5473,4.5525,0,U,69165,999,374,-.14414421E-2,-.160802E-2,0
STARLINK-37491,2026-111U,2026-06-13T17:39:00.715680,15.78158500,.00016039,53.1570,169.0202,54.0313,306.0858,0,U,69166,999,371,.13866843E-2,.248378E-2,0
STARLINK-37474,2026-111V,2026-06-13T17:35:20.133888,15.78186445,.0001202,53.1571,169.0031,47.8913,312.2211,0,U,69167,999,371,.21493368E-2,.392486E-2,0
STARLINK-37469,2026-111W,2026-06-13T22:00:01.999584,15.49258915,.00007701,53.1586,169.1462,100.7917,59.4685,0,U,69168,999,502,.13777364E-2,.76796E-3,0
STARLINK-37515,2026-111X,2026-06-13T22:00:01.999584,15.73590162,.00007588,53.1585,168.0778,88.5783,239.2865,0,U,69169,999,502,-.20307204E-1,-.2533636E-1,0
STARLINK-37437,2026-111Y,2026-06-13T06:48:25.085088,15.78119735,.0001518,53.1583,171.1764,97.1544,262.9650,0,U,69170,999,364,.13804E-2,.24678E-2,0
STARLINK-37392,2026-111Z,2026-06-13T22:00:01.999584,15.72892916,.00007736,53.1589,168.0090,93.4948,267.0213,0,U,69171,999,502,-.21071257E-1,-.2548446E-1,0
STARLINK-37472,2026-111AA,2026-06-13T22:00:01.999584,15.58295408,.00014609,53.1593,168.2044,101.8370,162.0112,0,U,69172,999,502,-.37274482E-1,-.2500919E-1,0
STARLINK-37461,2026-111AB,2026-06-13T22:00:01.999584,15.49257794,.00011835,53.1586,169.0538,97.1830,108.3700,0,U,69173,999,502,.13997858E-2,.78042E-3,0
STARLINK-37333,2026-111AC,2026-06-13T22:00:01.999584,15.68559090,.00010901,53.1591,168.1503,107.2004,184.1847,0,U,69174,999,502,-.23472595E-1,-.2385594E-1,0
STARLINK-37385,2026-111AD,2026-06-13T22:00:01.999584,15.49257700,.00011093,53.1590,168.9667,93.8675,154.5048,0,U,69175,999,502,.15053433E-2,.84026E-3,0
STARLINK-37414,2026-111AE,2026-06-13T22:00:01.999584,15.72021805,.00008743,53.1588,168.0160,91.3120,265.6815,0,U,69176,999,502,-.19756227E-1,-.2282697E-1,0
STRIX-7,2026-112A,2026-06-13T20:17:42.848448,15.01423080,.00234612,44.9059,210.0001,27.9913,332.2215,0,U,69177,999,337,.22127459E-3,.2682E-4,0
SHENZHOU-23 (SZ-23),2026-113A,2026-06-13T21:44:02.182848,15.60676113,.00077895,41.4695,341.9716,50.3492,309.8033,0,U,69180,999,29294,.28411739E-3,.24016E-3,0
STARLINK-37380,2026-114A,2026-06-13T20:42:33.905952,15.78138003,.00011968,53.1581,219.1005,86.6897,273.4261,0,U,69182,999,424,.11698198E-2,.208244E-2,0
STARLINK-37089,2026-114B,2026-06-13T14:36:25.829856,15.78073048,.0001362,53.1585,220.3575,78.6520,281.4654,0,U,69183,999,420,.60182E-3,.105204E-2,0
STARLINK-37428,2026-114C,2026-06-13T20:39:11.687616,15.78129091,.00012847,53.1583,219.0855,91.2619,268.8550,0,U,69184,999,424,.10577651E-2,.187701E-2,0
STARLINK-37237,2026-114D,2026-06-13T16:01:37.305696,15.78122229,.00012467,53.1589,220.0138,88.1251,271.9914,0,U,69185,999,421,.60423763E-3,.105872E-2,0
STARLINK-37365,2026-114E,2026-06-13T16:02:05.383968,15.78136488,.00012028,53.1585,220.0156,94.7233,265.3926,0,U,69186,999,421,.13610707E-2,.243393E-2,0
STARLINK-37209,2026-114F,2026-06-13T20:34:34.313376,15.78142201,.00017109,53.1584,219.0626,54.4595,305.6585,0,U,69187,999,424,.12740619E-2,.22742E-2,0
STARLINK-37359,2026-114G,2026-06-13T20:33:56.113344,15.78134681,.00014062,53.1584,219.0595,93.6304,266.4878,0,U,69188,999,424,.11281977E-2,.2006E-2,0
