STARLINK-37353          
1 69157U 26111K   26164.72574555  .00374586  00000+0  18247-2 0  9994
2 69157  53.1569 168.9578 0003789 348.1205  11.9728 15.80817314  3710
STARLINK-37363          
1 69158U 26111L   26164.91668981 -.02509623  00000+0 -17691-1 0  9990
2 69158  53.1585 167.9825 0000694  98.1349 276.7344 15.77062715  5020
STARLINK-37343          
1 69159U 26111M   26164.91668981  .00087087  00000+0  15590-2 0  9999
2 69159  53.1593 168.9569 0000828  69.9943 184.4251 15.49262996  5025
STARLINK-37328          
1 69160U 26111N   26164.72352018  .00440945  00000+0  21155-2 0  9991
2 69160  53.1569 168.9418 0002882  21.7732 338.3413 15.80975520  3710
STARLINK-37311          
1 69161U 26111P   26164.73516542  .00387488  00000+0  21230-2 0  9993
2 69161  53.1570 169.0196 0002162  72.3858 287.7399 15.78189461  3718
STARLINK-36286          
1 69162U 26111Q   26163.65766931 -.00390918  00000+0 -23897-2 0  9998
2 69162  53.1571 174.3873 0000815 172.6788 187.4246 15.77702201  3540
STARLINK-37196          
1 69163U 26111R   26164.73702955  .00299868  00000+0  16649-2 0  9992
2 69163  53.1572 169.0314 0001936  80.2172 279.9068 15.78135609  3710
STARLINK-36288          
1 69164U 26111S   26164.91668981 -.02419773  00000+0 -21453-1 0  9994
2 69164  53.1589 168.1541 0001103 111.9979 178.5168 15.71086024  5024
STARLINK-37445          
1 69165U 26111T   26164.93184146 -.00160802  00000+0 -14414-2 0  9997
2 69165  53.1588 168.1126 0002054 355.5473   4.5525 15.68088455  3742
STARLINK-37491          
1 69166U 26111U   26164.73542495  .00248378  00000+0  13867-2 0  9995
2 69166  53.1570 169.0202 0001603  54.0313 306.0858 15.78158500  3718
STARLINK-37474          
1 69167U 26111V   26164.73287192  .00392486  00000+0  21493-2 0  9990
2 69167  53.1571 169.0031 0001202  47.8913 312.2211 15.78186445  3712
STARLINK-37469          
1 69168U 26111W   26164.91668981  .00076796  00000+0  13777-2 0  9999
2 69168  53.1586 169.1462 0000770 100.7917  59.4685 15.49258915  5021
STARLINK-37515          
1 69169U 26111X   26164.91668981 -.02533636  00000+0 -20307-1 0  9991
2 69169  53.1585 168.0778 0000758  88.5783 239.2865 15.73590162  5027
STARLINK-37437          
1 69170U 26111Y   26164.28362367  .00246780  00000+0  13804-2 0  9994
2 69170  53.1583 171.1764 0001518  97.1544 262.9650 15.78119735  3642
STARLINK-37392          
1 69171U 26111Z   26164.91668981 -.02548446  00000+0 -21071-1 0  9998
2 69171  53.1589 168.0090 0000773  93.4948 267.0213 15.72892916  5023
STARLINK-37472          
1 69172U 26111AA  26164.91668981 -.02500919  00000+0 -37274-1 0  9994
2 69172  53.1593 168.2044 0001460 101.8370 162.0112 15.58295408  5026
STARLINK-37461          
1 69173U 26111AB  26164.91668981  .00078042  00000+0  13998-2 0  9996
2 69173  53.1586 169.0538 0001183  97.1830 108.3700 15.49257794  5028
STARLINK-37333          
1 69174U 26111AC  26164.91668981 -.02385594  00000+0 -23473-1 0  9992
2 69174  53.1591 168.1503 0001090 107.2004 184.1847 15.68559090  5029
STARLINK-37385          
1 69175U 26111AD  26164.91668981  .00084026  00000+0  15053-2 0  9991
2 69175  53.1590 168.9667 0001109  93.8675 154.5048 15.49257700  5029
STARLINK-37414          
1 69176U 26111AE  26164.91668981 -.02282697  00000+0 -19756-1 0  9993
2 69176  53.1588 168.0160 0000874  91.3120 265.6815 15.72021805  5029
STRIX-7                 
1 69177U 26112A   26164.84563482  .00002682  00000+0  22127-3 0  9995
2 69177  44.9059 210.0001 0023461  27.9913 332.2215 15.01423080  3379
SHENZHOU-23 (SZ-23)     
1 69180U 26113A   26164.90558082  .00024016  00000+0  28412-3 0  9995
2 69180  41.4695 341.9716 0007789  50.3492 309.8033 15.60676113292948
STARLINK-37380          
1 69182U 26114A   26164.86289243  .00208244  00000+0  11698-2 0  9997
2 69182  53.1581 219.1005 0001196  86.6897 273.4261 15.78138003  4241
STARLINK-37089          
1 69183U 26114B   26164.60863229  .00105204  00000+0  60182-3 0  9997
2 69183  53.1585 220.3575 0001362  78.6520 281.4654 15.78073048  4209
STARLINK-37428          
1 69184U 26114C   26164.86055194  .00187701  00000+0  10578-2 0  9995
2 69184  53.1583 219.0855 0001284  91.2619 268.8550 15.78129091  4245
STARLINK-37237          
1 69185U 26114D   26164.66779289  .00105872  00000+0  60424-3 0  9997
2 69185  53.1589 220.0138 0001246  88.1251 271.9914 15.78122229  4215
STARLINK-37365          
1 69186U 26114E   26164.66811787  .00243393  00000+0  13611-2 0  9994
2 69186  53.1585 220.0156 0001202  94.7233 265.3926 15.78136488  4219
STARLINK-37209          
1 69187U 26114F   26164.85734159  .00227420  00000+0  12741-2 0  9999
2 69187  53.1584 219.0626 0001710  54.4595 305.6585 15.78142201  4249
STARLINK-37359          
1 69188U 26114G   26164.85689946  .00200600  00000+0  11282-2 0  9993
2 69188  53.1584 219.0595 0001406  93.6304 266.4878 15.78134681  4242
